{
  "type": "FeatureCollection",
  "features": [
    {
      "type": "Feature",
      "properties": {
        "norad_id": 66439,
        "name": "STARLINK-35327",
        "group": "last-30-days",
        "lat": -40.39418300250255,
        "lon": -5.71231996370842,
        "alt_km": 418.603323386149,
        "timestamp": "2025-12-02T07:10:07.866034+00:00",
        "meta_object_name": "STARLINK-35327",
        "meta_object_id": "2025-259T",
        "meta_epoch": "2025-12-01T20:00:01.999008",
        "meta_mean_motion": 15.51428382,
        "meta_eccentricity": 0.000129,
        "meta_inclination": 42.9994,
        "meta_ra_of_asc_node": 111.0679,
        "meta_arg_of_pericenter": 278.3749,
        "meta_mean_anomaly": 252.4637,
        "meta_ephemeris_type": 0,
        "meta_classification_type": "U",
        "meta_norad_cat_id": 66439,
        "meta_element_set_no": 999,
        "meta_rev_at_epoch": 452,
        "meta_bstar": -0.023335,
        "meta_mean_motion_dot": -0.01278044,
        "meta_mean_motion_ddot": 0,
        "tle_line1": "1 66439U 25259T   25335.83335647 -.01278044  00000+0 -23335-1 0  9992",
        "tle_line2": "2 66439  42.9994 111.0679 0001290 278.3749 252.4637 15.51428382  4523"
      },
      "geometry": {
        "type": "Point",
        "coordinates": [
          -5.71231996370842,
          -40.39418300250255
        ]
      }
    },
    {
      "type": "Feature",
      "properties": {
        "norad_id": 66440,
        "name": "STARLINK-35405",
        "group": "last-30-days",
        "lat": -42.101590720135704,
        "lon": 4.190208345403092,
        "alt_km": 418.6467469990339,
        "timestamp": "2025-12-02T07:10:07.866044+00:00",
        "meta_object_name": "STARLINK-35405",
        "meta_object_id": "2025-259U",
        "meta_epoch": "2025-12-01T20:00:01.999008",
        "meta_mean_motion": 15.51427835,
        "meta_eccentricity": 0.0001322,
        "meta_inclination": 42.9994,
        "meta_ra_of_asc_node": 111.0476,
        "meta_arg_of_pericenter": 280.6903,
        "meta_mean_anomaly": 257.8184,
        "meta_ephemeris_type": 0,
        "meta_classification_type": "U",
        "meta_norad_cat_id": 66440,
        "meta_element_set_no": 999,
        "meta_rev_at_epoch": 452,
        "meta_bstar": -0.023551,
        "meta_mean_motion_dot": -0.01288766,
        "meta_mean_motion_ddot": 0,
        "tle_line1": "1 66440U 25259U   25335.83335647 -.01288766  00000+0 -23551-1 0  9996",
        "tle_line2": "2 66440  42.9994 111.0476 0001322 280.6903 257.8184 15.51427835  4522"
      },
      "geometry": {
        "type": "Point",
        "coordinates": [
          4.190208345403092,
          -42.101590720135704
        ]
      }
    },
    {
      "type": "Feature",
      "properties": {
        "norad_id": 66441,
        "name": "STARLINK-35426",
        "group": "last-30-days",
        "lat": -42.39209277561666,
        "lon": 6.741002642212732,
        "alt_km": 418.6696895099876,
        "timestamp": "2025-12-02T07:10:07.866054+00:00",
        "meta_object_name": "STARLINK-35426",
        "meta_object_id": "2025-259V",
        "meta_epoch": "2025-12-01T20:00:01.999008",
        "meta_mean_motion": 15.51429453,
        "meta_eccentricity": 0.0001284,
        "meta_inclination": 42.9995,
        "meta_ra_of_asc_node": 111.0421,
        "meta_arg_of_pericenter": 280.2964,
        "meta_mean_anomaly": 260.129,
        "meta_ephemeris_type": 0,
        "meta_classification_type": "U",
        "meta_norad_cat_id": 66441,
        "meta_element_set_no": 999,
        "meta_rev_at_epoch": 452,
        "meta_bstar": -0.023611,
        "meta_mean_motion_dot": -0.01291781,
        "meta_mean_motion_ddot": 0,
        "tle_line1": "1 66441U 25259V   25335.83335647 -.01291781  00000+0 -23611-1 0  9995",
        "tle_line2": "2 66441  42.9995 111.0421 0001284 280.2964 260.1290 15.51429453  4527"
      },
      "geometry": {
        "type": "Point",
        "coordinates": [
          6.741002642212732,
          -42.39209277561666
        ]
      }
    },
    {
      "type": "Feature",
      "properties": {
        "norad_id": 66442,
        "name": "STARLINK-34724",
        "group": "last-30-days",
        "lat": -42.63119201250931,
        "lon": 9.388583087383722,
        "alt_km": 418.06092130452816,
        "timestamp": "2025-12-02T07:10:07.866064+00:00",
        "meta_object_name": "STARLINK-34724",
        "meta_object_id": "2025-259W",
        "meta_epoch": "2025-12-01T20:00:01.999008",
        "meta_mean_motion": 15.51391453,
        "meta_eccentricity": 0.0001773,
        "meta_inclination": 42.9997,
        "meta_ra_of_asc_node": 111.0386,
        "meta_arg_of_pericenter": 282.2292,
        "meta_mean_anomaly": 260.1049,
        "meta_ephemeris_type": 0,
        "meta_classification_type": "U",
        "meta_norad_cat_id": 66442,
        "meta_element_set_no": 999,
        "meta_rev_at_epoch": 452,
        "meta_bstar": -0.02082,
        "meta_mean_motion_dot": -0.01133865,
        "meta_mean_motion_ddot": 0,
        "tle_line1": "1 66442U 25259W   25335.83335647 -.01133865  00000+0 -20820-1 0  9993",
        "tle_line2": "2 66442  42.9997 111.0386 0001773 282.2292 260.1049 15.51391453  4529"
      },
      "geometry": {
        "type": "Point",
        "coordinates": [
          9.388583087383722,
          -42.63119201250931
        ]
      }
    },
    {
      "type": "Feature",
      "properties": {
        "norad_id": 66443,
        "name": "STARLINK-35219",
        "group": "last-30-days",
        "lat": -42.80431606581559,
        "lon": 11.978846943627252,
        "alt_km": 418.1763658715008,
        "timestamp": "2025-12-02T07:10:07.866086+00:00",
        "meta_object_name": "STARLINK-35219",
        "meta_object_id": "2025-259X",
        "meta_epoch": "2025-12-01T20:00:01.999008",
        "meta_mean_motion": 15.51377831,
        "meta_eccentricity": 0.000157,
        "meta_inclination": 42.9995,
        "meta_ra_of_asc_node": 111.0329,
        "meta_arg_of_pericenter": 283.8875,
        "meta_mean_anomaly": 260.368,
        "meta_ephemeris_type": 0,
        "meta_classification_type": "U",
        "meta_norad_cat_id": 66443,
        "meta_element_set_no": 999,
        "meta_rev_at_epoch": 441,
        "meta_bstar": -0.020425,
        "meta_mean_motion_dot": -0.01113846,
        "meta_mean_motion_ddot": 0,
        "tle_line1": "1 66443U 25259X   25335.83335647 -.01113846  00000+0 -20425-1 0  9992",
        "tle_line2": "2 66443  42.9995 111.0329 0001570 283.8875 260.3680 15.51377831  4419"
      },
      "geometry": {
        "type": "Point",
        "coordinates": [
          11.978846943627252,
          -42.80431606581559
        ]
      }
    },
    {
      "type": "Feature",
      "properties": {
        "norad_id": 66444,
        "name": "STARLINK-35360",
        "group": "last-30-days",
        "lat": -42.97011263279626,
        "lon": 19.720285188657453,
        "alt_km": 418.6235558059452,
        "timestamp": "2025-12-02T07:10:07.866106+00:00",
        "meta_object_name": "STARLINK-35360",
        "meta_object_id": "2025-259Y",
        "meta_epoch": "2025-12-01T20:00:01.999008",
        "meta_mean_motion": 15.51422321,
        "meta_eccentricity": 0.0001307,
        "meta_inclination": 42.9994,
        "meta_ra_of_asc_node": 111.0176,
        "meta_arg_of_pericenter": 276.8636,
        "meta_mean_anomaly": 273.1499,
        "meta_ephemeris_type": 0,
        "meta_classification_type": "U",
        "meta_norad_cat_id": 66444,
        "meta_element_set_no": 999,
        "meta_rev_at_epoch": 452,
        "meta_bstar": -0.023555,
        "meta_mean_motion_dot": -0.01288747,
        "meta_mean_motion_ddot": 0,
        "tle_line1": "1 66444U 25259Y   25335.83335647 -.01288747  00000+0 -23555-1 0  9993",
        "tle_line2": "2 66444  42.9994 111.0176 0001307 276.8636 273.1499 15.51422321  4521"
      },
      "geometry": {
        "type": "Point",
        "coordinates": [
          19.720285188657453,
          -42.97011263279626
        ]
      }
    },
    {
      "type": "Feature",
      "properties": {
        "norad_id": 66445,
        "name": "STARLINK-34698",
        "group": "last-30-days",
        "lat": -42.91637583265651,
        "lon": 14.507150533849039,
        "alt_km": 418.6606908449821,
        "timestamp": "2025-12-02T07:10:07.866127+00:00",
        "meta_object_name": "STARLINK-34698",
        "meta_object_id": "2025-259Z",
        "meta_epoch": "2025-12-01T20:00:01.999008",
        "meta_mean_motion": 15.51429222,
        "meta_eccentricity": 0.0001227,
        "meta_inclination": 42.9996,
        "meta_ra_of_asc_node": 111.0274,
        "meta_arg_of_pericenter": 273.6967,
        "meta_mean_anomaly": 272.4772,
        "meta_ephemeris_type": 0,
        "meta_classification_type": "U",
        "meta_norad_cat_id": 66445,
        "meta_element_set_no": 999,
        "meta_rev_at_epoch": 441,
        "meta_bstar": -0.023578,
        "meta_mean_motion_dot": -0.01290128,
        "meta_mean_motion_ddot": 0,
        "tle_line1": "1 66445U 25259Z   25335.83335647 -.01290128  00000+0 -23578-1 0  9995",
        "tle_line2": "2 66445  42.9996 111.0274 0001227 273.6967 272.4772 15.51429222  4417"
      },
      "geometry": {
        "type": "Point",
        "coordinates": [
          14.507150533849039,
          -42.91637583265651
        ]
      }
    }
  ]
}